{
"type": "FeatureCollection",
"name": "master_corridors",
"crs": { "type": "name", "properties": { "name": "urn:ogc:def:crs:OGC:1.3:CRS84" } },
"features": [
{ "type": "Feature", "properties": { "species_sci": "Acridotheres tristis", "species_com": "Common Myna" }, "geometry": { "type": "LineString", "coordinates": [ [ 119.259820501947672, -11.562811121943852 ], [ 89.609145959407144, 12.506399364499657 ], [ 70.555237116865669, 10.73749210014342 ], [ 75.437073907756925, 10.95556604218954 ], [ 86.509565145421547, 13.00192848214493 ], [ 69.660164354891506, 16.830313302543278 ], [ 35.259726938675477, 15.725337139355023 ], [ 37.558725503791294, 8.505765802528336 ], [ 71.728346487342378, 12.89568767401396 ], [ 65.276429875118481, 10.30050951789233 ], [ 59.503629753658728, 5.271651326212985 ], [ 77.649064008919623, 16.492227385967301 ] ] } },
{ "type": "Feature", "properties": { "species_sci": "Aegithalos caudatus", "species_com": "Long-tailed Tit / Enaga" }, "geometry": { "type": "LineString", "coordinates": [ [ 20.038697336186189, 54.214962248482905 ], [ 9.953719120686559, 53.864574450161925 ], [ 11.39690030173114, 56.278219356101154 ], [ 7.701222314148689, 54.072462758883901 ], [ 24.780085739264763, 52.588742967500735 ], [ 15.134976249696443, 55.542701572986637 ], [ 14.284176862548666, 57.029221698198107 ], [ 15.329700574636155, 55.901374448304843 ], [ 12.547952280058643, 55.954357327576801 ], [ 16.802362004975059, 58.480313911032219 ], [ 22.344304905801714, 55.198587951300937 ], [ 22.336262896947268, 57.432089170651189 ] ] } },
{ "type": "Feature", "properties": { "species_sci": "Aix galericulata", "species_com": "Mandarin Duck / Oshidori" }, "geometry": { "type": "LineString", "coordinates": [ [ 65.393407910044999, 44.675523562259031 ], [ 60.185287102604121, 44.69508228399949 ], [ 53.282889936246299, 46.434887742816528 ], [ 16.714928319860906, 55.508198618057875 ], [ 73.045589598879872, 46.060034516246056 ], [ 58.888018037181276, 47.195702787045704 ], [ 80.131175099810548, 43.897929968616126 ], [ 69.546324419269268, 44.618150755860739 ], [ 27.812975509586671, 52.39150291545289 ], [ 27.121538088998566, 52.094329770370649 ], [ 54.091635718659354, 47.209229427410023 ], [ 74.92034871356681, 41.57365098844317 ] ] } },
{ "type": "Feature", "properties": { "species_sci": "Alectura lathami", "species_com": "Australian Brushturkey" }, "geometry": { "type": "LineString", "coordinates": [ [ 151.240492745098265, -28.122804991087463 ], [ 151.698497962963188, -29.04235870562772 ], [ 151.157533147804287, -28.340193536727753 ], [ 150.804510270939687, -27.299950894873628 ], [ 150.291897562800898, -26.533141504838991 ], [ 150.865388905355303, -27.251343736958692 ], [ 150.299564509175951, -26.024873220941735 ], [ 150.339882777014452, -26.17486505966794 ], [ 151.033417220196299, -27.458797144800435 ], [ 151.353584242424233, -28.259286851119839 ], [ 151.204816550300876, -28.235649252099204 ], [ 150.858733884297749, -27.50165243801656 ] ] } },
{ "type": "Feature", "properties": { "species_sci": "Alisterus scapularis", "species_com": "Australian King-Parrot" }, "geometry": { "type": "LineString", "coordinates": [ [ 149.602316740819134, -33.204946325846528 ], [ 149.611661081584742, -33.542294268852565 ], [ 149.449626525043811, -33.674790604099805 ], [ 149.49158876367477, -33.663249517955357 ], [ 149.343929339052835, -33.655609900373555 ], [ 149.516241634833079, -33.096085845117912 ], [ 149.488137222222804, -33.103497738537847 ], [ 149.43938379486687, -33.632585921955389 ], [ 149.54961657268845, -32.627199639006072 ], [ 149.37475648356002, -33.468695124082657 ], [ 149.644824586705994, -32.82823093250385 ], [ 149.581753953167748, -33.106066795521158 ] ] } },
{ "type": "Feature", "properties": { "species_sci": "Anas acuta", "species_com": "Northern Pintail / Onagagamo" }, "geometry": { "type": "LineString", "coordinates": [ [ -70.128954771891756, 41.764458677371678 ], [ -19.410899338977345, 42.304145988952797 ], [ 9.335049276094274, 54.792615129068395 ], [ 14.124709867649285, 57.821433344504221 ], [ 23.187053222127822, 58.682495206172241 ], [ -16.069649553101517, 59.775932327996024 ], [ 26.824766520755343, 60.8649950033724 ], [ 17.795700677485527, 62.059285712388572 ], [ 13.678861496136951, 57.547224804117462 ], [ -11.49958194450644, 54.393962819338768 ], [ -69.375750092596505, 43.887664503873673 ], [ -56.791889802473996, 46.607256307439371 ] ] } },
{ "type": "Feature", "properties": { "species_sci": "Anas crecca", "species_com": "Eurasian Teal / Kogamo" }, "geometry": { "type": "LineString", "coordinates": [ [ -5.17199477344883, 47.200731841003396 ], [ -30.428745335832843, 40.234547407124296 ], [ 11.181636535249883, 56.521430396784197 ], [ 11.000988055555553, 55.606396164257021 ], [ 28.701144054542929, 59.456756107761805 ], [ 14.840096662143894, 63.066679900497675 ], [ 12.773711133820196, 60.133641031174832 ], [ 10.657124745604458, 57.359793689159304 ], [ 11.586238250730339, 57.609032634413062 ], [ 15.670467522669178, 58.511875517321691 ], [ -4.152332882681466, 49.317426240073118 ], [ 10.719503752450489, 56.624871692829281 ] ] } },
{ "type": "Feature", "properties": { "species_sci": "Anas superciliosa", "species_com": "Pacific Black Duck" }, "geometry": { "type": "LineString", "coordinates": [ [ 147.107723881009633, -34.197824370473249 ], [ 146.956172729212454, -34.492149653124507 ], [ 147.130941685302247, -34.014704308766817 ], [ 146.993230410716905, -33.579304329639065 ], [ 147.446517358786934, -33.382875898446358 ], [ 145.940292539439866, -32.439693693885332 ], [ 146.822632983684713, -32.692404413575517 ], [ 146.879876972713959, -33.485233383735846 ], [ 143.198279581381286, -32.205659352539172 ], [ 142.416263361682951, -32.535472683075227 ], [ 146.770060847074177, -34.124340676951469 ], [ 145.297078100967013, -34.308781763286838 ] ] } },
{ "type": "Feature", "properties": { "species_sci": "Anas zonorhyncha", "species_com": "Eastern Spot-billed Duck / Karugamo" }, "geometry": { "type": "LineString", "coordinates": [ [ 128.203184713625262, 32.554875448097953 ], [ 129.939852941308914, 33.833542420111868 ], [ 130.385829962734249, 34.482461901539779 ], [ 129.153511433143393, 34.181006545154546 ], [ 129.730963962962988, 35.438670801346802 ], [ 122.278503250981288, 33.466045775073923 ], [ 129.354729303396539, 33.004694113413954 ], [ 128.094097065289503, 33.167703434102663 ], [ 123.601512444875596, 32.472674170590075 ], [ 129.715273282828463, 33.042554129530615 ], [ 127.966816770186327, 33.281437146464654 ], [ 127.966426472216355, 32.93128784330414 ] ] } },
{ "type": "Feature", "properties": { "species_sci": "Anthochaera carunculata", "species_com": "Red Wattlebird" }, "geometry": { "type": "LineString", "coordinates": [ [ 142.080122766123196, -35.400722016317111 ], [ 140.333663293791943, -35.280095198471628 ], [ 140.936449340241552, -35.080332103342357 ], [ 142.159949034848381, -35.157892452020235 ], [ 140.790584883435855, -34.749867443910901 ], [ 142.229751509493354, -35.059059482899535 ], [ 138.990301460782973, -34.928225710853518 ], [ 140.235394165687183, -35.01960446718855 ], [ 141.806371676587162, -35.252255097402546 ], [ 142.620700332439043, -35.51496761852011 ], [ 142.816090759885782, -35.353130661442876 ], [ 143.075786937941814, -35.53214905552521 ] ] } },
{ "type": "Feature", "properties": { "species_sci": "Aquila audax", "species_com": "Wedge-tailed Eagle" }, "geometry": { "type": "LineString", "coordinates": [ [ 138.540682936280263, -33.46123631849045 ], [ 142.323987353969585, -34.872855997924617 ], [ 143.280805025832962, -34.689289401913854 ], [ 143.700102689096894, -33.779621386667792 ], [ 134.361377277524554, -30.673619739231604 ], [ 137.366979117795324, -30.444935494940445 ], [ 140.608129715314675, -31.212946518494867 ], [ 136.325554763376402, -29.482901152879602 ], [ 135.811624361678327, -30.512296102783957 ], [ 136.2868862899536, -30.708565879415666 ], [ 138.829184792184947, -31.869030896659602 ], [ 138.652841903905028, -33.280672894873874 ] ] } },
{ "type": "Feature", "properties": { "species_sci": "Ardea cinerea", "species_com": "Grey Heron / Aosagi" }, "geometry": { "type": "LineString", "coordinates": [ [ 27.134089021974592, 45.039720100542766 ], [ 72.138468771871302, 34.36590134149197 ], [ 10.830928529208451, 58.685747617006868 ], [ 12.286850716959467, 56.251594222012287 ], [ 33.468456273217015, 51.800505327949004 ], [ 20.83479979825491, 60.526675902594114 ], [ 11.110446244441652, 57.101555424924641 ], [ 9.551525656644726, 57.622772737578138 ], [ 11.494787316060844, 58.788480778146081 ], [ 15.589477734418905, 58.320211470588156 ], [ 34.590009268464804, 48.487196060627504 ], [ 12.108417526589625, 59.189940395942394 ] ] } },
{ "type": "Feature", "properties": { "species_sci": "Cacatua galerita", "species_com": "Sulphur-crested Cockatoo" }, "geometry": { "type": "LineString", "coordinates": [ [ 148.120422063722316, -34.323110490543755 ], [ 148.420641774193655, -33.513272662104946 ], [ 149.827545454545429, -33.991637323232325 ], [ 148.124386274162873, -27.592719252778089 ], [ 148.181224989048729, -26.647753016004707 ], [ 149.820032545454438, -33.875144737373766 ], [ 141.441824714358177, -17.896368970785744 ], [ 147.565405912012125, -32.519329714500188 ], [ 146.450196933929959, -31.417644632443686 ], [ 142.251155608519127, -20.225562227942714 ], [ 147.936144421039302, -34.380950857881892 ], [ 148.025782275132798, -34.298988236446249 ] ] } },
{ "type": "Feature", "properties": { "species_sci": "Cacatua sanguinea", "species_com": "Little Corella" }, "geometry": { "type": "LineString", "coordinates": [ [ 144.815252755964025, -32.770396018788226 ], [ 143.418956963305334, -32.560775324655026 ], [ 143.125960004456772, -32.368361503785778 ], [ 142.523078256449139, -32.129855453402065 ], [ 136.799063553027764, -28.789447623456443 ], [ 133.727949484816207, -26.509979567463109 ], [ 139.383406885417031, -28.300765060208953 ], [ 135.448095980116989, -26.345275626010135 ], [ 134.52420740612618, -25.337454386473784 ], [ 135.66036298666441, -25.950492993786451 ], [ 143.099219924103153, -31.446162592245063 ], [ 144.243208057532144, -32.986761974961176 ] ] } },
{ "type": "Feature", "properties": { "species_sci": "Chenonetta jubata", "species_com": "Australian Wood Duck" }, "geometry": { "type": "LineString", "coordinates": [ [ 138.986170868365548, -28.975821884974039 ], [ 131.414723046393476, -26.084808841537217 ], [ 134.698159160411279, -29.975716939092941 ], [ 145.931867472328634, -32.824577689666135 ], [ 133.302463201525541, -28.382414794861667 ], [ 62.589559574307636, 15.997983064021158 ], [ 148.272225399250715, -33.725756918123459 ], [ 144.317919926356893, -33.873744232610491 ], [ 146.676030526876048, -33.67700034454846 ], [ 145.244359972054298, -34.901291299050449 ], [ 146.881004944642626, -35.297369535213818 ], [ 146.152063813365373, -33.945786058539838 ] ] } },
{ "type": "Feature", "properties": { "species_sci": "Corvus coronoides", "species_com": "Australian Raven" }, "geometry": { "type": "LineString", "coordinates": [ [ 140.487249340799025, -34.067487523961674 ], [ 138.988185435865319, -33.767933028227418 ], [ 142.070044531262994, -33.694832313632176 ], [ 144.172769159158406, -33.728070981435827 ], [ 142.432677047584264, -33.6292329682366 ], [ 149.938299591368121, -33.633281056014688 ], [ 138.985240815584092, -33.231064528656944 ], [ 139.060355558968581, -33.651564702429837 ], [ 140.807602065972105, -33.354789866161582 ], [ 144.127486359286848, -33.343528430235381 ], [ 142.245187105039662, -33.967182911906015 ], [ 141.334241947056455, -34.356639533263589 ] ] } },
{ "type": "Feature", "properties": { "species_sci": "Corvus macrorhynchos", "species_com": "Large-billed Crow / Hashibutogarasu" }, "geometry": { "type": "LineString", "coordinates": [ [ 99.918092012438578, 16.174889789763608 ], [ 102.636746554595319, 22.536792715391343 ], [ 99.661363450468272, 24.696522794078142 ], [ 97.5523453759577, 23.840102711973419 ], [ 98.524436603382981, 23.913859915874927 ], [ 101.387194477316541, 26.059369257793186 ], [ 98.279507064321166, 22.927380232670579 ], [ 101.84014011632668, 16.87271546254598 ], [ 99.656300646438098, 18.613668329088704 ], [ 94.819558304312224, 19.620444858043996 ], [ 94.312330214568846, 23.761903946718405 ], [ 93.992554961029896, 17.356823862411048 ] ] } },
{ "type": "Feature", "properties": { "species_sci": "Cracticus torquatus", "species_com": "Grey Butcherbird" }, "geometry": { "type": "LineString", "coordinates": [ [ 146.55700581778683, -34.089337455335091 ], [ 145.348453558310155, -33.526121239669408 ], [ 147.034718334046886, -33.233463866442079 ], [ 146.270854097796018, -33.196756470768278 ], [ 146.897647386701635, -33.028940277293856 ], [ 142.727635112908303, -31.613091723518487 ], [ 143.039807333012732, -32.483371864149021 ], [ 144.433326505902272, -33.228953215351879 ], [ 140.03716489501943, -31.551787671676657 ], [ 143.390885612074982, -32.388914826076309 ], [ 146.925166812097189, -33.414482796235454 ], [ 147.201112575756014, -34.077463386828377 ] ] } },
{ "type": "Feature", "properties": { "species_sci": "Cyanoptila cyanomelana", "species_com": "Blue-and-white Flycatcher / Ōruri" }, "geometry": { "type": "LineString", "coordinates": [ [ 113.332167074276057, 6.342620014827944 ], [ 113.062850857766634, 7.490755153244374 ], [ 107.045670384205323, 12.533049036162883 ], [ 128.116461182548591, 33.103073846896642 ], [ 133.759306572802814, 37.804623160495829 ], [ 134.316376780602951, 37.793268375159272 ], [ 133.957764062695645, 37.149402167885725 ], [ 133.409896755370283, 37.904255083546353 ], [ 124.598394573215856, 30.989713780074492 ], [ 122.404910472520086, 28.372225098730492 ], [ 114.79498470814805, 13.409549624468806 ], [ 102.809205160143733, 8.747796328211287 ] ] } },
{ "type": "Feature", "properties": { "species_sci": "Cygnus atratus", "species_com": "Black Swan" }, "geometry": { "type": "LineString", "coordinates": [ [ 118.696281467122006, 5.474666024196035 ], [ 124.212804612161264, 2.721545785620758 ], [ 121.680264258165991, -4.490140830451543 ], [ 135.242732588544328, -27.706219754868478 ], [ 117.56208575187236, -16.162727238528369 ], [ 111.726964549583727, -12.522300558847393 ], [ 112.969232235808164, -10.961212631695934 ], [ 120.236931718047998, -18.938330955462309 ], [ 114.428907179089165, -13.783405414677382 ], [ 109.160772470741435, -0.121006933432836 ], [ 124.848404436041918, -1.342390651441542 ], [ 140.654476693058854, -23.974827252174087 ] ] } },
{ "type": "Feature", "properties": { "species_sci": "Cygnus cygnus", "species_com": "Whooper Swan / Ōhakuchō" }, "geometry": { "type": "LineString", "coordinates": [ [ 10.943758886359019, 58.912277212105728 ], [ 13.951882131521232, 57.822838096224324 ], [ 14.913360798242911, 58.142859571998294 ], [ 12.578666054743485, 61.369568746493428 ], [ 19.837306699663934, 60.665656103596504 ], [ 15.442633182170908, 62.368322887608173 ], [ 15.072211094972928, 61.261226347916399 ], [ 14.140732349204971, 61.995762852898693 ], [ 12.551688267334765, 60.576833557334091 ], [ 16.811768017280627, 60.601217909724944 ], [ 19.826135365158542, 60.249545056213101 ], [ 11.749983755739226, 59.410312500000039 ] ] } },
{ "type": "Feature", "properties": { "species_sci": "Dacelo novaeguineae", "species_com": "Laughing Kookaburra" }, "geometry": { "type": "LineString", "coordinates": [ [ 147.494254692728646, -33.664311666760135 ], [ 148.212366908547352, -33.217929279849507 ], [ 141.656943743643325, -34.185786617017499 ], [ 148.038029977623353, -33.379448312342682 ], [ 144.070724373858582, -34.088645650132889 ], [ 147.844131499039747, -32.47628633874794 ], [ 148.555851579684884, -31.635517776920281 ], [ 148.03377487443305, -32.300120032934437 ], [ 148.104486621534164, -33.075935308491353 ], [ 147.626300752355974, -32.79725886192923 ], [ 147.895014886132714, -33.584634777856145 ], [ 148.058393889477628, -33.635900682775201 ] ] } },
{ "type": "Feature", "properties": { "species_sci": "Dromaius novaehollandiae", "species_com": "Emu" }, "geometry": { "type": "LineString", "coordinates": [ [ 143.159962195968404, -31.769450944410281 ], [ 142.259850101810343, -32.005975757862778 ], [ 137.679246814814263, -31.27813377622374 ], [ 139.528999583504998, -31.000664239359438 ], [ 141.571722014522351, -33.269947638107311 ], [ 143.626709430630797, -31.073696166135132 ], [ 143.018116699668781, -29.946893063181694 ], [ 141.020109084981129, -31.345097105715904 ], [ 141.869473197146931, -30.915225692415493 ], [ 143.286623750873957, -31.914071805159324 ], [ 143.021866961980351, -32.231510710828793 ], [ 140.754327245970615, -30.076440138909973 ] ] } },
{ "type": "Feature", "properties": { "species_sci": "Eolophus roseicapilla", "species_com": "Galah" }, "geometry": { "type": "LineString", "coordinates": [ [ 145.852303829786024, -34.004980967887299 ], [ 146.294287124763059, -34.148588280744804 ], [ 142.387269068101176, -33.534772775880768 ], [ 145.013103505044228, -32.527041366196443 ], [ 139.628301557465477, -32.403456832062339 ], [ 141.262740730715848, -32.528949522161 ], [ 144.946444852346161, -32.839368560248779 ], [ 144.134502891548209, -33.99807499544832 ], [ 141.160534632523678, -31.698137091746108 ], [ 141.217692809544218, -32.696899043146438 ], [ 143.21518454526904, -34.115443770428101 ], [ 144.250191013128841, -34.755606256075872 ] ] } },
{ "type": "Feature", "properties": { "species_sci": "Eurystomus orientalis", "species_com": "Dollarbird" }, "geometry": { "type": "LineString", "coordinates": [ [ 118.148143571914673, -3.869821851460129 ], [ 110.955282675197751, 1.781765677518542 ], [ 110.699749130510867, 2.790410175422158 ], [ 119.432488808954702, 3.686382253799983 ], [ 105.456387159124802, 15.685885387601497 ], [ 110.577574075890553, 11.566959685673941 ], [ 109.332688261247213, 9.295889453718747 ], [ 112.810258861179364, 7.570244946683264 ], [ 124.531163333719078, -1.808457779089996 ], [ 122.198705077156774, -8.174370388882593 ], [ 110.66448014876714, 1.297210054082144 ], [ 114.94968190200116, -2.920234685156444 ] ] } },
{ "type": "Feature", "properties": { "species_sci": "Falco cenchroides", "species_com": "Nankeen Kestrel" }, "geometry": { "type": "LineString", "coordinates": [ [ 141.001169599774329, -32.729382944029993 ], [ 139.152406712345737, -32.745776550874034 ], [ 134.269841336708339, -29.052519099821787 ], [ 137.973381025861102, -30.735993295588649 ], [ 133.251619352452934, -28.067450175226494 ], [ 132.479199684644641, -27.118912972448257 ], [ 133.175780792562222, -27.469036884489885 ], [ 136.241349691084622, -28.63131020866868 ], [ 133.700989242399856, -30.07348120842094 ], [ 135.746887915667315, -30.778012795674051 ], [ 138.034133175710593, -31.267307004222722 ], [ 136.185038158875159, -31.405450007275455 ] ] } },
{ "type": "Feature", "properties": { "species_sci": "Ficedula narcissina", "species_com": "Narcissus Flycatcher / Kibitaki" }, "geometry": { "type": "LineString", "coordinates": [ [ 120.449063817190051, 3.566690877557291 ], [ 121.352677318640701, 15.271707685950274 ], [ 108.870802419925155, 9.796754444556299 ], [ 128.663533637750845, 32.310929759042118 ], [ 135.249361821949066, 36.404470093057782 ], [ 138.827884804507335, 38.384056341189719 ], [ 138.38804188659492, 37.931846060203661 ], [ 136.879565431649894, 36.455399583838407 ], [ 136.126174959506983, 36.123349900777782 ], [ 123.765659340377326, 23.384796784788243 ], [ 122.28456793279328, 24.461047105210536 ], [ 114.335681042162349, 12.485533568449025 ] ] } },
{ "type": "Feature", "properties": { "species_sci": "Fulica atra", "species_com": "Eurasian Coot" }, "geometry": { "type": "LineString", "coordinates": [ [ 50.385894066689055, 34.717925041432309 ], [ 18.595518064641652, 52.00600245307411 ], [ 10.016650697341523, 55.506635801945862 ], [ 9.038983827820697, 54.224106941638617 ], [ 40.520515608316856, 42.229172609391703 ], [ 14.424142586809523, 58.422783519160859 ], [ 8.681737313262431, 54.336317302636502 ], [ 14.329438672934975, 50.522505113680609 ], [ 10.575207770811069, 53.44820439353181 ], [ 78.701372262514994, 14.381104562268598 ], [ 56.22599019800505, 30.930825346393199 ], [ 21.711038378320943, 54.696215266638866 ] ] } },
{ "type": "Feature", "properties": { "species_sci": "Gallinago hardwickii", "species_com": "Latham's Snipe" }, "geometry": { "type": "LineString", "coordinates": [ [ 148.268605953800346, -34.844062966626041 ], [ 147.926102901233861, -34.567190401086812 ], [ 148.649642234042545, -31.090023945841338 ], [ 141.111894881316829, 5.569489780324809 ], [ 143.638449964285059, -5.935919053386918 ], [ 143.023016308758258, 44.675842789096329 ], [ 147.785937178464962, -17.736106523757734 ], [ 142.789389235448965, 19.722568240683618 ], [ 148.10268694293984, -31.373246680202996 ], [ 148.677015569177598, -27.001747610645531 ], [ 148.168758430548479, -32.557370567524941 ], [ 148.496664852296732, -34.47879978616352 ] ] } },
{ "type": "Feature", "properties": { "species_sci": "Grallina cyanoleuca", "species_com": "Magpie-lark" }, "geometry": { "type": "LineString", "coordinates": [ [ 140.485777945399349, -31.5165673607735 ], [ 137.78565517720449, -30.127594502769913 ], [ 144.126441384242838, -32.88420077012988 ], [ 144.25156329866374, -32.628297988286484 ], [ 147.364251222174602, -29.074535741014802 ], [ 134.458014632325018, -22.525320494647641 ], [ 136.693415588701356, -26.014290295563047 ], [ 138.544864361072513, -23.343010025129225 ], [ 137.729349441438558, -26.295956618641355 ], [ 145.013496483098635, -30.702200405608753 ], [ 137.504689249511415, -29.65003654665599 ], [ 140.579843115922102, -31.103964700012977 ] ] } },
{ "type": "Feature", "properties": { "species_sci": "Gymnorhina tibicen", "species_com": "Australian Magpie" }, "geometry": { "type": "LineString", "coordinates": [ [ 148.508697037620067, -34.632642029408188 ], [ 149.378356466973173, -34.796141982439501 ], [ 147.844967929794223, -34.354724203967869 ], [ 153.328960099424251, -33.837318024749919 ], [ 150.677962526904793, -33.172743901563877 ], [ 147.797185697869423, -34.302536207527332 ], [ 150.503770272221175, -34.003040634786565 ], [ 147.467869758267454, -33.903759659600517 ], [ 149.355060903902171, -34.503424159797035 ], [ 149.20654319167906, -34.456576459242541 ], [ 150.057955206247527, -35.301060177732523 ], [ 148.789778659407233, -34.763269760585253 ] ] } },
{ "type": "Feature", "properties": { "species_sci": "Hirundo neoxena", "species_com": "Welcome Swallow" }, "geometry": { "type": "LineString", "coordinates": [ [ 155.58502539898717, -36.763609147662564 ], [ 153.829418416464392, -35.492153795340101 ], [ 155.482964236611082, -35.79153694309425 ], [ 147.407157810577729, -32.928990865724408 ], [ 146.840412582771279, -32.118797555117354 ], [ 146.049847325405437, -32.674318620528858 ], [ 149.096487158130884, -31.096201003009021 ], [ 151.006613999272702, -30.662530001705825 ], [ 151.1482883073528, -33.814750799949998 ], [ 148.846831286486804, -34.181633074986863 ], [ 153.368258184301141, -35.627094673051651 ], [ 153.970950528270492, -36.24634999279489 ] ] } },
{ "type": "Feature", "properties": { "species_sci": "Hirundo rustica", "species_com": "Barn Swallow / Tsubame" }, "geometry": { "type": "LineString", "coordinates": [ [ 27.237195005771785, -27.369833110757316 ], [ 48.622453305328698, 10.149438292278639 ], [ -27.644156925772783, 40.057150609919482 ], [ -14.559852472434391, 40.378713428828512 ], [ -2.334460178266904, 49.917759900494453 ], [ 13.864121111111054, 60.068455569285121 ], [ 11.312513617443091, 58.085121735942515 ], [ -13.721685585376385, 53.754520647805059 ], [ 13.346321044738579, 59.153505358566655 ], [ 3.950383783361371, 46.826935615600064 ], [ 47.136815046715405, 11.815257993662879 ], [ 72.664550833630571, 1.972117337387898 ] ] } },
{ "type": "Feature", "properties": { "species_sci": "Horornis diphone", "species_com": "Japanese Bush Warbler / Uguisu" }, "geometry": { "type": "LineString", "coordinates": [ [ 94.95307308024816, 30.059720813990168 ], [ 100.421466536256631, 31.467805756013846 ], [ 111.994366918580027, 29.692562282027765 ], [ 120.561181667847791, 32.998522366286686 ], [ 124.867487160346585, 35.524861832386186 ], [ 126.525238233636557, 35.903073939628705 ], [ 121.615056184708124, 34.821921420395732 ], [ 122.471774667394385, 35.295549963869185 ], [ 126.318529546495554, 34.657459054280466 ], [ 122.597095840189453, 34.922594024218185 ], [ 114.415281950446158, 28.936233470981779 ], [ 111.104460633079213, 31.187488084970411 ] ] } },
{ "type": "Feature", "properties": { "species_sci": "Limosa lapponica", "species_com": "Bar-tailed Godwit" }, "geometry": { "type": "LineString", "coordinates": [ [ 59.615944780886807, 3.656520259166184 ], [ 88.753076750347091, -0.845291291471697 ], [ 83.102613001296987, 5.174093530142089 ], [ 12.367726998946587, 57.280714455258128 ], [ 13.517440271317806, 58.460377200845606 ], [ 55.390439562192547, 31.166915196672289 ], [ 12.02905401792443, 58.348162304006166 ], [ 13.236471288660503, 58.020346005750646 ], [ 5.005209843022153, 51.169779343831507 ], [ 8.151884874830063, 54.088767344562683 ], [ 144.855123838448463, -27.052128369693939 ], [ 62.28816132249549, -1.375333344132934 ] ] } },
{ "type": "Feature", "properties": { "species_sci": "Malurus cyaneus", "species_com": "Superb Fairy-wren" }, "geometry": { "type": "LineString", "coordinates": [ [ 147.370696293445576, -35.225318248136304 ], [ 147.316530060109386, -35.555563764513657 ], [ 146.946429448451909, -35.932514055507205 ], [ 147.260134590996586, -35.772527759531641 ], [ 147.439102519860427, -34.829755004936651 ], [ 147.615083507052788, -35.056097116640331 ], [ 147.936305770556345, -34.726396864360019 ], [ 147.50323845833384, -35.340860479798103 ], [ 147.503488098876687, -35.073380843330582 ], [ 147.644829781876865, -35.191617382207127 ], [ 147.52471180867704, -35.470433219557194 ], [ 147.134344460868505, -35.768350354767144 ] ] } },
{ "type": "Feature", "properties": { "species_sci": "Manorina melanocephala", "species_com": "Noisy Miner" }, "geometry": { "type": "LineString", "coordinates": [ [ 148.420057840908896, -33.610978257575709 ], [ 148.460109570191577, -33.415003160287647 ], [ 148.17954928603541, -33.481269254863172 ], [ 148.641068914487477, -33.413491837751316 ], [ 148.695244378058845, -33.071504041184987 ], [ 148.749575382319961, -33.150553878555897 ], [ 148.838239594951915, -32.96134025013226 ], [ 148.720855428608502, -32.989174581863317 ], [ 148.712875321583226, -32.957953659039383 ], [ 148.694501706085362, -33.090753551367285 ], [ 148.453379923008725, -33.673451416773567 ], [ 148.30237362735329, -33.51121804816551 ] ] } },
{ "type": "Feature", "properties": { "species_sci": "Merops ornatus", "species_com": "Rainbow Bee-eater" }, "geometry": { "type": "LineString", "coordinates": [ [ 140.542779162856334, -29.549109978658365 ], [ 140.098126906294539, -29.12872061984989 ], [ 137.294630351315931, -25.652961014487691 ], [ 136.653726370049839, -17.739513832796977 ], [ 135.004396968782828, -16.821107875193199 ], [ 136.83334401981358, -18.766424286620737 ], [ 136.027066419802225, -15.487149298138187 ], [ 135.31346452969558, -16.543339998293082 ], [ 140.629316987686451, -21.115663888087845 ], [ 137.110092825733972, -25.454766380514048 ], [ 139.75953134182879, -28.138380357238248 ], [ 136.20975606696868, -26.450166510775482 ] ] } },
{ "type": "Feature", "properties": { "species_sci": "Milvus migrans", "species_com": "Black Kite / Tobi" }, "geometry": { "type": "LineString", "coordinates": [ [ 51.683369184003183, 15.869833858912008 ], [ 68.65264071915098, 9.80847034781304 ], [ 43.201431138670735, 38.417145371753591 ], [ 38.965371807483166, 51.858234112907205 ], [ 50.409868199813054, 53.504671700538928 ], [ 51.757555931914652, 47.70947734579515 ], [ 35.934353555989333, 50.487852001422453 ], [ 23.64833564716076, 50.963534172836383 ], [ 105.057320526543819, 19.491042837187841 ], [ 70.968575755787356, 17.517191481238633 ], [ 40.838691400163, 14.552193447430534 ], [ 79.641679699482324, 9.753169432423467 ] ] } },
{ "type": "Feature", "properties": { "species_sci": "Motacilla grandis", "species_com": "Japanese Wagtail / Segurosekirei" }, "geometry": { "type": "LineString", "coordinates": [ [ 135.2682716688808, 35.851063536776294 ], [ 136.405512158591421, 36.095199163425306 ], [ 135.504379006115897, 35.448517574830859 ], [ 137.163254026990558, 35.934357743719048 ], [ 136.263256858442503, 35.645800233470624 ], [ 136.997964177756614, 35.890000662292913 ], [ 136.360324675006069, 35.749607893839077 ], [ 136.843278470330944, 35.542735816246051 ], [ 136.456486561984093, 35.508515223599787 ], [ 136.178927272727321, 35.493604411764721 ], [ 136.147069072543701, 35.564076193755753 ], [ 135.313012041752785, 35.639329185009615 ] ] } },
{ "type": "Feature", "properties": { "species_sci": "Ninox boobook", "species_com": "Southern Boobook" }, "geometry": { "type": "LineString", "coordinates": [ [ 146.038508758119491, -33.458256302046038 ], [ 141.059848545897324, -31.591053559634105 ], [ 139.037601087881882, -31.049691803579908 ], [ 139.7318117051976, -31.377225952060531 ], [ 137.377567548386878, -28.371826453099075 ], [ 136.666545054194927, -25.868889985576946 ], [ 135.091711116171723, -25.110325347550113 ], [ 133.449051939372595, -25.302262264170583 ], [ 136.18819188184753, -29.77164212340519 ], [ 140.3649694638396, -30.473227876240689 ], [ 141.213107392347183, -31.53520517428613 ], [ 139.555859417691323, -32.458598283960939 ] ] } },
{ "type": "Feature", "properties": { "species_sci": "Nymphicus hollandicus", "species_com": "Cockatiel" }, "geometry": { "type": "LineString", "coordinates": [ [ 72.554722522303905, 1.939447284046544 ], [ 125.403915108623409, -19.011514095696366 ], [ 131.865613125582968, -20.538925064897551 ], [ 109.541870659611362, -13.051045563235991 ], [ 130.646009738537117, -19.389020665734542 ], [ 96.124668555938428, -1.471049023972705 ], [ 102.013905660584726, -4.583938785505159 ], [ 89.467437452418366, -0.140978024651454 ], [ 115.573002509486443, -12.469484266090779 ], [ 141.574226510360774, -28.730522026170409 ], [ 131.772925156186602, -25.231141973681254 ], [ 114.537673175942302, -12.106721092193627 ] ] } },
{ "type": "Feature", "properties": { "species_sci": "Ocyphaps lophotes", "species_com": "Crested Pigeon" }, "geometry": { "type": "LineString", "coordinates": [ [ 145.054155850975519, -33.190227712555128 ], [ 145.974402194163901, -33.331206757273137 ], [ 145.470625126411107, -33.000563858371706 ], [ 144.775246467761377, -33.335538050994515 ], [ 144.51174510992189, -32.378562009803808 ], [ 134.141526853183478, -29.378770166395149 ], [ 139.293095015951195, -30.592625447499532 ], [ 134.951471884351292, -28.99937059543144 ], [ 132.967647512669345, -27.925295531031423 ], [ 139.635730877738894, -31.386691141738584 ], [ 145.551974833597285, -33.07217185600733 ], [ 145.459129866897939, -33.114236896701293 ] ] } },
{ "type": "Feature", "properties": { "species_sci": "Pardalotus punctatus", "species_com": "Spotted Pardalote" }, "geometry": { "type": "LineString", "coordinates": [ [ 143.660673215547689, -36.17237942885874 ], [ 146.120537476969758, -36.036037910565931 ], [ 142.330217865293974, -35.149078113193013 ], [ 144.345861879249156, -34.927079220632692 ], [ 144.029564510846512, -35.177452873820158 ], [ 144.31681744394615, -34.596052566924904 ], [ 143.888247055852702, -34.725214003565249 ], [ 146.380336347336851, -35.068793690574026 ], [ 145.817477272727189, -34.58262624510084 ], [ 146.658422658079672, -35.264011074799519 ], [ 146.467041333333441, -35.621873333333355 ], [ 146.771184770202694, -36.58608987654339 ] ] } },
{ "type": "Feature", "properties": { "species_sci": "Parus minor", "species_com": "Japanese Tit / Shijūkara" }, "geometry": { "type": "LineString", "coordinates": [ [ 133.336148873348748, 34.437611655011587 ], [ 134.227416818182036, 34.575612964698593 ], [ 129.613187430824695, 35.643251925991244 ], [ 129.990251859553553, 36.411278350665832 ], [ 132.685061557354231, 37.115994477653089 ], [ 126.386787580027331, 30.081278355860206 ], [ 136.418680895348217, 38.030338516927252 ], [ 122.912679703154083, 31.385538185352097 ], [ 127.496627106149276, 33.626465916685689 ], [ 126.064156930661412, 33.181892434303258 ], [ 127.849322000343534, 32.98594057627303 ], [ 126.070160398895666, 30.844561615708191 ] ] } },
{ "type": "Feature", "properties": { "species_sci": "Passer montanus", "species_com": "Eurasian Tree Sparrow / Suzume" }, "geometry": { "type": "LineString", "coordinates": [ [ 63.007053811530803, 48.65161584149746 ], [ 16.32134317529728, 59.296226855287934 ], [ 12.782682228482544, 58.679844076509127 ], [ 10.805499978660251, 57.083450545169022 ], [ 59.67034246731312, 50.618402355106639 ], [ 17.418641406132455, 62.684677209048033 ], [ 14.614589210264118, 59.133428625226692 ], [ 51.21721511033774, 47.009419373768011 ], [ 14.518430986589479, 57.474136335276278 ], [ 18.661436639330123, 58.435071906622738 ], [ 76.030637595311021, 43.298978478580317 ], [ 19.538016754158676, 58.712513777572269 ] ] } },
{ "type": "Feature", "properties": { "species_sci": "Pelecanus conspicillatus", "species_com": "Australian Pelican" }, "geometry": { "type": "LineString", "coordinates": [ [ 145.943894257935398, -33.648367212457735 ], [ 146.776184159125165, -34.026995738949061 ], [ 146.439935702656896, -34.283991170503207 ], [ 145.767292940846119, -32.871753306802141 ], [ 146.595768239699026, -32.745183432448172 ], [ 140.625865600710824, -30.397006072475019 ], [ 138.922272876874985, -30.504303023285594 ], [ 146.417593427105686, -31.277882828449325 ], [ 141.186469603450263, -31.283099857198341 ], [ 142.862081572677084, -31.544599387977108 ], [ 147.037076828156415, -33.154195597316857 ], [ 146.552821482202404, -33.277380720081915 ] ] } },
{ "type": "Feature", "properties": { "species_sci": "Petrochelidon ariel", "species_com": "Fairy Martin" }, "geometry": { "type": "LineString", "coordinates": [ [ 147.575748016098032, -31.741817899305513 ], [ 137.52944365439609, -23.346344906756688 ], [ 146.615797480746977, -32.016225829569983 ], [ 138.365542003637472, -21.028820648908336 ], [ 140.111113917289174, -22.714350746350771 ], [ 135.448663393254947, -22.614148186632992 ], [ 144.766610690235041, -24.242600168349998 ], [ 141.318425543069651, -25.003375717712554 ], [ 141.192621298695826, -25.632269100921764 ], [ 141.939638007238614, -25.613303823533268 ], [ 146.990302159387909, -30.711147966162081 ], [ 148.189228839303354, -31.833356656683922 ] ] } },
{ "type": "Feature", "properties": { "species_sci": "Phasianus versicolor", "species_com": "Green Pheasant / Kiji" }, "geometry": { "type": "LineString", "coordinates": [ [ 135.953847708239124, 34.798142196989524 ], [ 135.424715445191197, 34.704474194153178 ], [ 129.349953149816088, 36.964084586432747 ], [ 135.557368686959933, 35.722524340743739 ], [ 138.538141955034405, 35.927711670576727 ], [ 136.669489304217365, 36.154229196883421 ], [ 138.563930908125229, 36.40801674071156 ], [ 138.019827634007612, 36.082712558814897 ], [ 137.9969052523183, 36.335674387522793 ], [ 138.015955404881566, 36.357097481842146 ], [ 135.779196576592426, 35.373399164835618 ], [ 133.746429604800909, 35.945224904061654 ] ] } },
{ "type": "Feature", "properties": { "species_sci": "Phoenicurus auroreus", "species_com": "Daurian Redstart / Jōbitaki" }, "geometry": { "type": "LineString", "coordinates": [ [ 117.877977785945561, 29.51207070644071 ], [ 118.885778825524838, 29.198017071305177 ], [ 123.84256923873771, 32.689005403943987 ], [ 115.60110661574339, 33.110765603390206 ], [ 113.830445326408025, 42.162870328801596 ], [ 111.340252708892791, 39.108675973929785 ], [ 109.546827432136297, 35.963454061686718 ], [ 109.233662455514647, 38.1004916723127 ], [ 108.677192721834047, 40.360970533124451 ], [ 118.11249650836767, 33.651681653267204 ], [ 124.465323019701884, 30.811095505550835 ], [ 121.223959955964304, 29.365609608275093 ] ] } },
{ "type": "Feature", "properties": { "species_sci": "Phylidonyris novaehollandiae", "species_com": "New Holland Honeyeater" }, "geometry": { "type": "LineString", "coordinates": [ [ 139.752566363636504, -36.452005925401281 ], [ 138.432622067126886, -36.039237512858655 ], [ 137.958117425702113, -36.241271387283255 ], [ 138.238526390312614, -35.919418223698521 ], [ 138.587408917259069, -35.693039102755947 ], [ 138.203808461629734, -35.900042344566032 ], [ 137.933487143798999, -35.841957241168124 ], [ 138.620979176243509, -36.076154274167443 ], [ 137.057462182113966, -35.626234571242257 ], [ 140.201271443112574, -36.138021052384111 ], [ 139.173011208282077, -36.48408082131936 ], [ 138.980263736830324, -36.44136246442914 ] ] } },
{ "type": "Feature", "properties": { "species_sci": "Platycercus elegans", "species_com": "Crimson Rosella" }, "geometry": { "type": "LineString", "coordinates": [ [ 146.785407988685165, -35.337357365066985 ], [ 146.858581477928936, -35.1947735697239 ], [ 146.692620234803883, -35.522951739913715 ], [ 146.93790181929981, -35.430250737291587 ], [ 146.586259272578673, -35.397500261475685 ], [ 147.062251968042773, -35.067743461426794 ], [ 146.818770781097555, -35.214220492538942 ], [ 146.768571826253634, -35.067394410480325 ], [ 146.701946280835642, -35.254484315192784 ], [ 144.05383741790439, -35.253818683285516 ], [ 144.995933802870439, -34.99629276351741 ], [ 147.143132270744644, -35.302617368922839 ] ] } },
{ "type": "Feature", "properties": { "species_sci": "Podargus strigoides", "species_com": "Tawny Frogmouth" }, "geometry": { "type": "LineString", "coordinates": [ [ 148.255449098161989, -32.946504259913283 ], [ 139.138651843844968, -30.723774079429603 ], [ 145.64533482452299, -33.830889527181796 ], [ 147.700530544275495, -33.329101640684428 ], [ 149.720262813778675, -31.176432816227241 ], [ 149.837286346558272, -32.030055111551853 ], [ 148.3959794015841, -31.57381523080214 ], [ 150.13805268225434, -31.284555779087441 ], [ 149.586228627625161, -32.114700162108306 ], [ 147.973370848925839, -33.363938388448723 ], [ 148.885545024772881, -32.59692654668617 ], [ 146.765491464038433, -33.332125617622069 ] ] } },
{ "type": "Feature", "properties": { "species_sci": "Porphyrio melanotus", "species_com": "Australasian Swamphen" }, "geometry": { "type": "LineString", "coordinates": [ [ 148.285665937577136, -34.858882840597452 ], [ 150.183883247437763, -35.189053769151798 ], [ 147.810463783479918, -34.681019705991694 ], [ 152.190723984643455, -34.991683500912131 ], [ 152.952825440374028, -35.463955020658119 ], [ 153.57907279919101, -35.246571299029654 ], [ 154.805380374896828, -35.339865806556226 ], [ 152.077949920107955, -34.337712688780222 ], [ 154.450630496305649, -35.03132252935827 ], [ 155.917996860583202, -35.30155926377553 ], [ 154.23567278527176, -35.656723364215111 ], [ 155.403922512853768, -35.7630547475367 ] ] } },
{ "type": "Feature", "properties": { "species_sci": "Ptilonorhynchus violaceus", "species_com": "Satin Bowerbird" }, "geometry": { "type": "LineString", "coordinates": [ [ 150.423263599588637, -33.018175456833831 ], [ 150.288122784258093, -33.307229748742699 ], [ 149.979851475942667, -33.416821995072269 ], [ 150.031556984951692, -33.315295824572161 ], [ 150.159325761749443, -32.67971651938506 ], [ 149.855769232138584, -33.010855137537291 ], [ 149.640519171877372, -32.98564000160335 ], [ 149.975034019462413, -32.704389705729319 ], [ 150.0249125306552, -32.923505320280853 ], [ 150.167610361867531, -32.820034920224273 ], [ 150.272090785308052, -32.619432079073192 ], [ 150.030009932315892, -33.61527256565622 ] ] } },
{ "type": "Feature", "properties": { "species_sci": "Rhipidura leucophrys", "species_com": "Willie Wagtail" }, "geometry": { "type": "LineString", "coordinates": [ [ 134.548777161674536, -27.926770119346607 ], [ 141.732693067029658, -30.884540867974749 ], [ 142.15660199914106, -30.053550703997292 ], [ 147.388758321399479, -32.272482699483994 ], [ 138.696924384254942, -29.967474338661994 ], [ 139.804945008075975, -28.817605233362634 ], [ 136.351449087865518, -23.567513424755212 ], [ 143.882128328071019, -30.167753059772693 ], [ 142.44879625480516, -30.122868211280618 ], [ 137.390973639147433, -28.136554506569372 ], [ 143.669452225623587, -31.708448413604163 ], [ 133.350515139197597, -26.95132209397805 ] ] } },
{ "type": "Feature", "properties": { "species_sci": "Spilopelia chinensis", "species_com": "Spotted Dove" }, "geometry": { "type": "LineString", "coordinates": [ [ 119.287967234038092, -2.407975084985155 ], [ 113.327567128271824, 0.895955342719299 ], [ 118.841726020502975, -4.937593537808458 ], [ 115.332252968828129, -2.671937684947505 ], [ 107.154511465534057, 5.152069791982341 ], [ 117.914721707735254, -2.542628189461199 ], [ 116.065682302720433, -3.382454509757129 ], [ 121.010877155313622, -4.94545132494641 ], [ 108.869720348654639, 1.932600876387113 ], [ 100.421940989658083, -2.496196333496717 ], [ 112.929636592162026, -0.253687980789433 ], [ 113.716659171868869, 2.605023282222941 ] ] } },
{ "type": "Feature", "properties": { "species_sci": "Threskiornis molucca", "species_com": "Australian White Ibis" }, "geometry": { "type": "LineString", "coordinates": [ [ 138.3116833060636, -32.160847968168085 ], [ 144.041987897314357, -33.774117330642923 ], [ 145.14379791636523, -33.334841135213296 ], [ 144.725396560389385, -32.620574935686385 ], [ 147.866117993871882, -33.130166469452377 ], [ 141.690611615862906, -29.76832584379504 ], [ 139.048026287952098, -29.331350260772687 ], [ 145.832077920510926, -29.5784116339488 ], [ 138.483003068282244, -28.111023751711372 ], [ 141.747259695472678, -29.656064089839919 ], [ 143.822919579788845, -32.0058486811782 ], [ 147.506552492074491, -33.676012157782196 ] ] } },
{ "type": "Feature", "properties": { "species_sci": "Trichoglossus moluccanus", "species_com": "Rainbow Lorikeet" }, "geometry": { "type": "LineString", "coordinates": [ [ 147.840258732792392, -33.525539341208685 ], [ 148.375919678008671, -32.470180717764947 ], [ 148.25151115575656, -33.763676217282793 ], [ 148.462576232276092, -33.157317820736068 ], [ 145.52434054562255, -33.068362594813991 ], [ 146.850989461830835, -32.457169157532341 ], [ 148.387871801827316, -31.945167567882962 ], [ 145.445266431334545, -31.458033792177066 ], [ 148.223250276009196, -32.160780351814054 ], [ 147.18673097621155, -31.718527912701635 ], [ 147.617221790547063, -31.529822373473415 ], [ 147.226585960086055, -32.375555399039222 ] ] } },
{ "type": "Feature", "properties": { "species_sci": "Zosterops japonicus", "species_com": "Japanese White-eye / Mejiro" }, "geometry": { "type": "LineString", "coordinates": [ [ 67.437782185783433, 31.194237978418315 ], [ 106.347618346818138, 31.629030824066675 ], [ 86.832910247445923, 25.309075195154161 ], [ 65.020658235900427, 31.911599927931231 ], [ 45.072615232769067, 30.3883234913378 ], [ 66.714065771942089, 32.100374183580087 ], [ 85.187642202769908, 31.937513265338442 ], [ 100.074302557190876, 29.193097144308279 ], [ 102.441453250176991, 29.716577396972983 ], [ 105.964078621042546, 32.118175510050513 ], [ 92.064237944387315, 29.129822681529387 ], [ 104.139890020888757, 30.270096240616862 ] ] } },
{ "type": "Feature", "properties": { "species_sci": "Zosterops lateralis", "species_com": "Silvereye" }, "geometry": { "type": "LineString", "coordinates": [ [ 166.067574585562397, -39.785397176276575 ], [ 150.07535424701868, -36.627129391859704 ], [ 155.943290427311609, -37.796303099974295 ], [ 151.173069301104846, -35.505738860490709 ], [ 151.49685564050472, -35.613566700179703 ], [ 149.389189227660353, -34.410186635318141 ], [ 148.774670447652767, -34.247799561299651 ], [ 146.519466791203826, -33.836703257282366 ], [ 150.224071934098419, -33.818710406660443 ], [ 152.569555211660344, -36.280530283068224 ], [ 155.18909787168937, -36.213641873568818 ], [ 155.567772162115318, -37.609745441667982 ] ] } }
]
}
